STARLINK-4784           
1 53839U 22114X   26068.85869947 -.00000396  00000+0 -67699-5 0  9997
2 53839  53.2195 293.6076 0001524  82.9007 277.2158 15.08839080192990
KUIPER-00148            
1 65769U 25217H   26068.27522507  .00015783  00000+0  98730-3 0  9995
2 65769  51.8794  26.5769 0008108 351.8096   8.2745 15.09536529 25078
